[Satellite]
VERSION=1.1
NAME=COSMOS 2414
NICKNAME=COSMOS 2414
TLE1=1 28521U 05002A   17185.73125672  .00000015  00000-0 -32017-6 0  9996
TLE2=2 28521  82.9488 355.5499 0039192 290.5354  69.1599 13.87586798630719
